CCSDS_OMM_VERS = 2.0
CREATION_DATE  = 
ORIGINATOR     = 

OBJECT_NAME    = KUIPER-00214
OBJECT_ID      = 2026-030Q
CENTER_NAME    = EARTH
REF_FRAME      = TEME
TIME_SYSTEM    = UTC
MEAN_ELEMENT_THEORY = SGP/SGP4

EPOCH          = 2026-02-24T14:33:12.146976
MEAN_MOTION    = 15.36173226
ECCENTRICITY   = .00017926
INCLINATION    = 51.8845
RA_OF_ASC_NODE = 282.1332
ARG_OF_PERICENTER = 147.9335
MEAN_ANOMALY   = 212.1761

EPHEMERIS_TYPE = 0
CLASSIFICATION_TYPE = U
NORAD_CAT_ID   = 67778
ELEMENT_SET_NO = 999
REV_AT_EPOCH   = 308
BSTAR          = .82104372E-3
MEAN_MOTION_DOT = .29115E-3
MEAN_MOTION_DDOT = 0

CCSDS_OMM_VERS = 2.0
CREATION_DATE  = 
ORIGINATOR     = 

OBJECT_NAME    = KUIPER-00215
OBJECT_ID      = 2026-030R
CENTER_NAME    = EARTH
REF_FRAME      = TEME
TIME_SYSTEM    = UTC
MEAN_ELEMENT_THEORY = SGP/SGP4

EPOCH          = 2026-02-24T14:58:15.746304
MEAN_MOTION    = 15.33938084
ECCENTRICITY   = .00101339
INCLINATION    = 51.8848
RA_OF_ASC_NODE = 282.2470
ARG_OF_PERICENTER = 22.4440
MEAN_ANOMALY   = 337.6987

EPHEMERIS_TYPE = 0
CLASSIFICATION_TYPE = U
NORAD_CAT_ID   = 67779
ELEMENT_SET_NO = 999
REV_AT_EPOCH   = 308
BSTAR          = .80137441E-3
MEAN_MOTION_DOT = .26462E-3
MEAN_MOTION_DDOT = 0

CCSDS_OMM_VERS = 2.0
CREATION_DATE  = 
ORIGINATOR     = 

OBJECT_NAME    = KUIPER-00218
OBJECT_ID      = 2026-030S
CENTER_NAME    = EARTH
REF_FRAME      = TEME
TIME_SYSTEM    = UTC
MEAN_ELEMENT_THEORY = SGP/SGP4

EPOCH          = 2026-02-24T14:50:39.482592
MEAN_MOTION    = 15.34645039
ECCENTRICITY   = .00065145
INCLINATION    = 51.8844
RA_OF_ASC_NODE = 282.2116
ARG_OF_PERICENTER = 18.0334
MEAN_ANOMALY   = 342.0882

EPHEMERIS_TYPE = 0
CLASSIFICATION_TYPE = U
NORAD_CAT_ID   = 67780
ELEMENT_SET_NO = 999
REV_AT_EPOCH   = 308
BSTAR          = .68687749E-3
MEAN_MOTION_DOT = .23116E-3
MEAN_MOTION_DDOT = 0

CCSDS_OMM_VERS = 2.0
CREATION_DATE  = 
ORIGINATOR     = 

OBJECT_NAME    = KUIPER-00220
OBJECT_ID      = 2026-030T
CENTER_NAME    = EARTH
REF_FRAME      = TEME
TIME_SYSTEM    = UTC
MEAN_ELEMENT_THEORY = SGP/SGP4

EPOCH          = 2026-02-24T14:55:40.488096
MEAN_MOTION    = 15.34185766
ECCENTRICITY   = .00080447
INCLINATION    = 51.8825
RA_OF_ASC_NODE = 282.2290
ARG_OF_PERICENTER = 19.9010
MEAN_ANOMALY   = 340.2287

EPHEMERIS_TYPE = 0
CLASSIFICATION_TYPE = U
NORAD_CAT_ID   = 67781
ELEMENT_SET_NO = 999
REV_AT_EPOCH   = 308
BSTAR          = .13591776E-2
MEAN_MOTION_DOT = .45594E-3
MEAN_MOTION_DDOT = 0

CCSDS_OMM_VERS = 2.0
CREATION_DATE  = 
ORIGINATOR     = 

OBJECT_NAME    = KUIPER-00222
OBJECT_ID      = 2026-030U
CENTER_NAME    = EARTH
REF_FRAME      = TEME
TIME_SYSTEM    = UTC
MEAN_ELEMENT_THEORY = SGP/SGP4

EPOCH          = 2026-02-24T15:11:45.542400
MEAN_MOTION    = 15.32443045
ECCENTRICITY   = .00172245
INCLINATION    = 51.8808
RA_OF_ASC_NODE = 282.2995
ARG_OF_PERICENTER = 25.9070
MEAN_ANOMALY   = 334.2774

EPHEMERIS_TYPE = 0
CLASSIFICATION_TYPE = U
NORAD_CAT_ID   = 67782
ELEMENT_SET_NO = 999
REV_AT_EPOCH   = 308
BSTAR          = .75164946E-3
MEAN_MOTION_DOT = .23702E-3
MEAN_MOTION_DDOT = 0

CCSDS_OMM_VERS = 2.0
CREATION_DATE  = 
ORIGINATOR     = 

OBJECT_NAME    = KUIPER-00223
OBJECT_ID      = 2026-030V
CENTER_NAME    = EARTH
REF_FRAME      = TEME
TIME_SYSTEM    = UTC
MEAN_ELEMENT_THEORY = SGP/SGP4

EPOCH          = 2026-02-24T15:01:18.331968
MEAN_MOTION    = 15.33665626
ECCENTRICITY   = .00119434
INCLINATION    = 51.8841
RA_OF_ASC_NODE = 282.2581
ARG_OF_PERICENTER = 22.1448
MEAN_ANOMALY   = 338.0051

EPHEMERIS_TYPE = 0
CLASSIFICATION_TYPE = U
NORAD_CAT_ID   = 67783
ELEMENT_SET_NO = 999
REV_AT_EPOCH   = 308
BSTAR          = .9357726E-3
MEAN_MOTION_DOT = .30731E-3
MEAN_MOTION_DDOT = 0

CCSDS_OMM_VERS = 2.0
CREATION_DATE  = 
ORIGINATOR     = 

OBJECT_NAME    = KUIPER-00225
OBJECT_ID      = 2026-030W
CENTER_NAME    = EARTH
REF_FRAME      = TEME
TIME_SYSTEM    = UTC
MEAN_ELEMENT_THEORY = SGP/SGP4

EPOCH          = 2026-02-24T14:43:22.639872
MEAN_MOTION    = 15.35288016
ECCENTRICITY   = .00035125
INCLINATION    = 51.8822
RA_OF_ASC_NODE = 282.1753
ARG_OF_PERICENTER = 9.9973
MEAN_ANOMALY   = 350.1083

EPHEMERIS_TYPE = 0
CLASSIFICATION_TYPE = U
NORAD_CAT_ID   = 67784
ELEMENT_SET_NO = 999
REV_AT_EPOCH   = 308
BSTAR          = .70422676E-3
MEAN_MOTION_DOT = .242E-3
MEAN_MOTION_DDOT = 0

CCSDS_OMM_VERS = 2.0
CREATION_DATE  = 
ORIGINATOR     = 

OBJECT_NAME    = KUIPER-00226
OBJECT_ID      = 2026-030X
CENTER_NAME    = EARTH
REF_FRAME      = TEME
TIME_SYSTEM    = UTC
MEAN_ELEMENT_THEORY = SGP/SGP4

EPOCH          = 2026-02-24T15:19:41.201184
MEAN_MOTION    = 15.31571653
ECCENTRICITY   = .00197077
INCLINATION    = 51.8809
RA_OF_ASC_NODE = 282.3357
ARG_OF_PERICENTER = 32.2508
MEAN_ANOMALY   = 327.9677

EPHEMERIS_TYPE = 0
CLASSIFICATION_TYPE = U
NORAD_CAT_ID   = 67785
ELEMENT_SET_NO = 999
REV_AT_EPOCH   = 308
BSTAR          = .33631785E-3
MEAN_MOTION_DOT = .10103E-3
MEAN_MOTION_DDOT = 0

CCSDS_OMM_VERS = 2.0
CREATION_DATE  = 
ORIGINATOR     = 

OBJECT_NAME    = KUIPER-00259
OBJECT_ID      = 2026-030Y
CENTER_NAME    = EARTH
REF_FRAME      = TEME
TIME_SYSTEM    = UTC
MEAN_ELEMENT_THEORY = SGP/SGP4

EPOCH          = 2026-02-24T14:52:27.735744
MEAN_MOTION    = 15.34480184
ECCENTRICITY   = .00077419
INCLINATION    = 51.8822
RA_OF_ASC_NODE = 282.2155
ARG_OF_PERICENTER = 11.7791
MEAN_ANOMALY   = 348.3374

EPHEMERIS_TYPE = 0
CLASSIFICATION_TYPE = U
NORAD_CAT_ID   = 67786
ELEMENT_SET_NO = 999
REV_AT_EPOCH   = 308
BSTAR          = .70770786E-3
MEAN_MOTION_DOT = .2371E-3
MEAN_MOTION_DDOT = 0

CCSDS_OMM_VERS = 2.0
CREATION_DATE  = 
ORIGINATOR     = 

OBJECT_NAME    = KUIPER-00260
OBJECT_ID      = 2026-030Z
CENTER_NAME    = EARTH
REF_FRAME      = TEME
TIME_SYSTEM    = UTC
MEAN_ELEMENT_THEORY = SGP/SGP4

EPOCH          = 2026-02-24T14:36:53.389728
MEAN_MOTION    = 15.35830450
ECCENTRICITY   = .00013599
INCLINATION    = 51.8802
RA_OF_ASC_NODE = 282.1458
ARG_OF_PERICENTER = 82.8395
MEAN_ANOMALY   = 277.2745

EPHEMERIS_TYPE = 0
CLASSIFICATION_TYPE = U
NORAD_CAT_ID   = 67787
ELEMENT_SET_NO = 999
REV_AT_EPOCH   = 299
BSTAR          = .83954001E-3
MEAN_MOTION_DOT = .29452E-3
MEAN_MOTION_DDOT = 0

CCSDS_OMM_VERS = 2.0
CREATION_DATE  = 
ORIGINATOR     = 

OBJECT_NAME    = KUIPER-00262
OBJECT_ID      = 2026-030AA
CENTER_NAME    = EARTH
REF_FRAME      = TEME
TIME_SYSTEM    = UTC
MEAN_ELEMENT_THEORY = SGP/SGP4

EPOCH          = 2026-02-24T14:34:21.786240
MEAN_MOTION    = 15.36135121
ECCENTRICITY   = .00014956
INCLINATION    = 51.8822
RA_OF_ASC_NODE = 282.1354
ARG_OF_PERICENTER = 119.9724
MEAN_ANOMALY   = 240.1411

EPHEMERIS_TYPE = 0
CLASSIFICATION_TYPE = U
NORAD_CAT_ID   = 67788
ELEMENT_SET_NO = 999
REV_AT_EPOCH   = 308
BSTAR          = .10428343E-2
MEAN_MOTION_DOT = .37077E-3
MEAN_MOTION_DDOT = 0

CCSDS_OMM_VERS = 2.0
CREATION_DATE  = 
ORIGINATOR     = 

OBJECT_NAME    = KUIPER-00266
OBJECT_ID      = 2026-030AB
CENTER_NAME    = EARTH
REF_FRAME      = TEME
TIME_SYSTEM    = UTC
MEAN_ELEMENT_THEORY = SGP/SGP4

EPOCH          = 2026-02-24T15:23:03.120576
MEAN_MOTION    = 15.31482746
ECCENTRICITY   = .0021738
INCLINATION    = 51.8811
RA_OF_ASC_NODE = 282.3480
ARG_OF_PERICENTER = 34.0770
MEAN_ANOMALY   = 326.1605

EPHEMERIS_TYPE = 0
CLASSIFICATION_TYPE = U
NORAD_CAT_ID   = 67789
ELEMENT_SET_NO = 999
REV_AT_EPOCH   = 308
BSTAR          = .47767876E-3
MEAN_MOTION_DOT = .14494E-3
MEAN_MOTION_DDOT = 0

