KUIPER-00214            
1 67778U 26030Q   26055.60639059  .00029115  00000+0  82104-3 0  9997
2 67778  51.8845 282.1332 0001792 147.9335 212.1761 15.36173226  3087
KUIPER-00215            
1 67779U 26030R   26055.62379336  .00026462  00000+0  80137-3 0  9995
2 67779  51.8848 282.2470 0010133  22.4440 337.6987 15.33938084  3089
KUIPER-00218            
1 67780U 26030S   26055.61851253  .00023116  00000+0  68688-3 0  9999
2 67780  51.8844 282.2116 0006514  18.0334 342.0882 15.34645039  3085
KUIPER-00220            
1 67781U 26030T   26055.62199639  .00045594  00000+0  13592-2 0  9991
2 67781  51.8825 282.2290 0008044  19.9010 340.2287 15.34185766  3084
KUIPER-00222            
1 67782U 26030U   26055.63316600  .00023702  00000+0  75165-3 0  9994
2 67782  51.8808 282.2995 0017224  25.9070 334.2774 15.32443045  3080
KUIPER-00223            
1 67783U 26030V   26055.62590662  .00030731  00000+0  93577-3 0  9993
2 67783  51.8841 282.2581 0011943  22.1448 338.0051 15.33665626  3081
KUIPER-00225            
1 67784U 26030W   26055.61345648  .00024200  00000+0  70423-3 0  9994
2 67784  51.8822 282.1753 0003512   9.9973 350.1083 15.35288016  3086
KUIPER-00226            
1 67785U 26030X   26055.63867131  .00010103  00000+0  33632-3 0  9991
2 67785  51.8809 282.3357 0019707  32.2508 327.9677 15.31571653  3089
KUIPER-00259            
1 67786U 26030Y   26055.61976546  .00023710  00000+0  70771-3 0  9994
2 67786  51.8822 282.2155 0007741  11.7791 348.3374 15.34480184  3083
KUIPER-00260            
1 67787U 26030Z   26055.60895127  .00029452  00000+0  83954-3 0  9995
2 67787  51.8802 282.1458 0001359  82.8395 277.2745 15.35830450  2992
KUIPER-00262            
1 67788U 26030AA  26055.60719660  .00037077  00000+0  10428-2 0  9990
2 67788  51.8822 282.1354 0001495 119.9724 240.1411 15.36135121  3083
KUIPER-00266            
1 67789U 26030AB  26055.64100834  .00014494  00000+0  47768-3 0  9998
2 67789  51.8811 282.3480 0021738  34.0770 326.1605 15.31482746  3087
